0 COSMOS 2050
1 20330U 89091A   13282.40942424  .00000702  00000-0  00000+0 0  5927
2 20330 067.4595 069.3677 5754475 212.3801 277.5357 02.00531694174916
0 COSMOS 2050
1 20330U 89091A   13286.14366561  .00000719  00000-0  00000+0 0  5933
2 20330 067.4607 069.1464 5755072 212.3261 093.3392 02.00537117174993
0 COSMOS 2050
1 20330U 89091A   13287.33844051  .00000695  00000-0  00000+0 0  5944
2 20330 067.4609 069.0754 5755243 212.3084 235.8807 02.00538851175013
0 COSMOS 2050
1 20330U 89091A   13289.63559800  .00000625  00000-0  00000+0 0  5958
2 20330 067.4616 068.9392 5755595 212.2735 094.2849 02.00542140175063
0 COSMOS 2050
1 20330U 89091A   13291.13666645  .00000588  00000-0  00000+0 0  5961
2 20330 067.4623 068.8503 5755851 212.2506 097.9789 02.00544202175092
0 COSMOS 2050
1 20330U 89091A   13293.12810778  .00000579  00000-0  00000+0 0  5971
2 20330 067.4633 068.7325 5756206 212.2205 095.7153 02.00546872175136
0 COSMOS 2050
1 20330U 89091A   13294.71645759  .00000603  00000-0  00000+0 0  5981
2 20330 067.4638 068.6385 5756482 212.1969 162.4512 02.00548943175163
